IRIDIUM 144             
1 43249U 18030A   24261.89518041  .00000982  00000+0  34357-3 0  9998
2 43249  86.4032 196.7418 0002305  88.2221 271.9239 14.34218940338795
IRIDIUM 149             
1 43250U 18030B   24261.34334876  .00001360  00000+0  47850-3 0  9995
2 43250  86.4031 196.9461 0002405  87.2009 272.9462 14.34229865338731
IRIDIUM 157             
1 43251U 18030C   24261.92054491  .00000903  00000+0  31528-3 0  9999
2 43251  86.4033 196.7442 0002666  78.6459 281.5036 14.34221392338799
IRIDIUM 140             
1 43252U 18030D   24261.86980312  .00000982  00000+0  34366-3 0  9993
2 43252  86.4031 196.7796 0002128  85.2126 274.9312 14.34221468338841
IRIDIUM 145             
1 43253U 18030E   24261.85712476  .00000892  00000+0  31157-3 0  9992
2 43253  86.4033 196.7583 0002320  93.5754 266.5707 14.34216858338775
IRIDIUM 146             
1 43254U 18030F   24261.90786191  .00000175  00000+0  55318-4 0  9994
2 43254  86.4034 196.7518 0002236  91.6761 268.4691 14.34212276338793
IRIDIUM 148             
1 43255U 18030G   24261.87615186  .00000835  00000+0  29112-3 0  9991
2 43255  86.4034 196.7981 0002482  86.9760 273.1720 14.34218493338824
IRIDIUM 142             
1 43256U 18030H   24261.91419821  .00000970  00000+0  33942-3 0  9991
2 43256  86.4030 196.6947 0002484  92.9061 267.2419 14.34219812338796
